OBJECT C                
1 57582U 23117C   24238.18982688  .00011251  00000+0  56179-3 0  9990
2 57582  97.4813 309.3566 0011434  60.1227 300.1141 15.17596624 57642
